0 DELTA 1 DEB
1 10845U 76077CR  13280.19668297 -.00000033  00000-0  10000-3 0  6153
2 10845 102.3418 188.5936 0176533 346.7230 012.9206 12.09647294643084
0 DELTA 1 DEB
1 10845U 76077CR  13286.73002328 -.00000034  00000-0  10000-3 0  6179
2 10845 102.3414 194.8424 0175777 335.4458 023.8196 12.09646769643870
0 DELTA 1 DEB
1 10845U 76077CR  13293.18067124 -.00000034  00000-0  10000-3 0  6182
2 10845 102.3397 201.0057 0176171 324.3309 034.6102 12.09647336644659
